SITRO-AIS-8 (SHCHUKIN)
1 57193U 23091AD  26068.98935253  .00018494  00000-0  64983-3 0  9995
2 57193  97.5169 133.2823 0012509  92.0171 268.2501 15.29359179149271
CSTP-4.2
1 64883U 25155H   26068.92359504  .00013547  00000-0  50403-3 0  9991
2 64883  97.4482  37.3122 0008199 152.0629 208.1051 15.27590961 65592
